{
  "type": "FeatureCollection",
  "features": [
    {
      "type": "Feature",
      "properties": {
        "norad_id": 29994,
        "name": "FENGYUN 1C DEB",
        "group": "fengyun-1c-debris",
        "lat": 43.40028562257374,
        "lon": 0.5564797287394567,
        "alt_km": 970.2071364707717,
        "timestamp": "2025-12-02T10:50:47.547046+00:00",
        "meta_object_name": "FENGYUN 1C DEB",
        "meta_object_id": "1999-025LU",
        "meta_epoch": "2025-12-02T00:38:30.448320",
        "meta_mean_motion": 14.02631444,
        "meta_eccentricity": 0.012954,
        "meta_inclination": 98.8306,
        "meta_ra_of_asc_node": 8.5976,
        "meta_arg_of_pericenter": 243.6648,
        "meta_mean_anomaly": 174.156,
        "meta_ephemeris_type": 0,
        "meta_classification_type": "U",
        "meta_norad_cat_id": 29994,
        "meta_element_set_no": 999,
        "meta_rev_at_epoch": 96576,
        "meta_bstar": 0.00037885,
        "meta_mean_motion_dot": 5.85e-06,
        "meta_mean_motion_ddot": 0,
        "tle_line1": "1 29994U 99025LU  25336.02674130  .00000585  00000+0  37885-3 0  9991",
        "tle_line2": "2 29994  98.8306   8.5976 0129540 243.6648 174.1560 14.02631444965764"
      },
      "geometry": {
        "type": "Point",
        "coordinates": [
          0.5564797287394567,
          43.40028562257374
        ]
      }
    },
    {
      "type": "Feature",
      "properties": {
        "norad_id": 29996,
        "name": "FENGYUN 1C DEB",
        "group": "fengyun-1c-debris",
        "lat": -25.545543341752136,
        "lon": 17.986983738342047,
        "alt_km": 942.8155548218165,
        "timestamp": "2025-12-02T10:50:47.547056+00:00",
        "meta_object_name": "FENGYUN 1C DEB",
        "meta_object_id": "1999-025LW",
        "meta_epoch": "2025-12-02T02:33:21.534336",
        "meta_mean_motion": 14.09314259,
        "meta_eccentricity": 0.0132687,
        "meta_inclination": 99.3045,
        "meta_ra_of_asc_node": 13.1362,
        "meta_arg_of_pericenter": 117.4794,
        "meta_mean_anomaly": 266.0129,
        "meta_ephemeris_type": 0,
        "meta_classification_type": "U",
        "meta_norad_cat_id": 29996,
        "meta_element_set_no": 999,
        "meta_rev_at_epoch": 95987,
        "meta_bstar": 0.0021364,
        "meta_mean_motion_dot": 3.993e-05,
        "meta_mean_motion_ddot": 0,
        "tle_line1": "1 29996U 99025LW  25336.10649924  .00003993  00000+0  21364-2 0  9995",
        "tle_line2": "2 29996  99.3045  13.1362 0132687 117.4794 266.0129 14.09314259959875"
      },
      "geometry": {
        "type": "Point",
        "coordinates": [
          17.986983738342047,
          -25.545543341752136
        ]
      }
    },
    {
      "type": "Feature",
      "properties": {
        "norad_id": 29997,
        "name": "FENGYUN 1C DEB",
        "group": "fengyun-1c-debris",
        "lat": -55.936231664124655,
        "lon": 0.5557548313463246,
        "alt_km": 862.3340856935984,
        "timestamp": "2025-12-02T10:50:47.547066+00:00",
        "meta_object_name": "FENGYUN 1C DEB",
        "meta_object_id": "1999-025LX",
        "meta_epoch": "2025-12-02T01:08:54.481920",
        "meta_mean_motion": 14.00838271,
        "meta_eccentricity": 0.0080407,
        "meta_inclination": 98.8806,
        "meta_ra_of_asc_node": 346.793,
        "meta_arg_of_pericenter": 357.1079,
        "meta_mean_anomaly": 70.0199,
        "meta_ephemeris_type": 0,
        "meta_classification_type": "U",
        "meta_norad_cat_id": 29997,
        "meta_element_set_no": 999,
        "meta_rev_at_epoch": 96240,
        "meta_bstar": 0.00094427,
        "meta_mean_motion_dot": 1.407e-05,
        "meta_mean_motion_ddot": 0,
        "tle_line1": "1 29997U 99025LX  25336.04785280  .00001407  00000+0  94427-3 0  9994",
        "tle_line2": "2 29997  98.8806 346.7930 0080407 357.1079  70.0199 14.00838271962401"
      },
      "geometry": {
        "type": "Point",
        "coordinates": [
          0.5557548313463246,
          -55.936231664124655
        ]
      }
    },
    {
      "type": "Feature",
      "properties": {
        "norad_id": 29998,
        "name": "FENGYUN 1C DEB",
        "group": "fengyun-1c-debris",
        "lat": -69.03177442571295,
        "lon": -169.16601065457527,
        "alt_km": 803.7232805085132,
        "timestamp": "2025-12-02T10:50:47.547075+00:00",
        "meta_object_name": "FENGYUN 1C DEB",
        "meta_object_id": "1999-025LY",
        "meta_epoch": "2025-12-02T02:57:00.188640",
        "meta_mean_motion": 14.28471715,
        "meta_eccentricity": 0.0004617,
        "meta_inclination": 99.3078,
        "meta_ra_of_asc_node": 35.8207,
        "meta_arg_of_pericenter": 336.2025,
        "meta_mean_anomaly": 23.894,
        "meta_ephemeris_type": 0,
        "meta_classification_type": "U",
        "meta_norad_cat_id": 29998,
        "meta_element_set_no": 999,
        "meta_rev_at_epoch": 97723,
        "meta_bstar": 0.0010174,
        "meta_mean_motion_dot": 2.499e-05,
        "meta_mean_motion_ddot": 0,
        "tle_line1": "1 29998U 99025LY  25336.12291885  .00002499  00000+0  10174-2 0  9995",
        "tle_line2": "2 29998  99.3078  35.8207 0004617 336.2025  23.8940 14.28471715977233"
      },
      "geometry": {
        "type": "Point",
        "coordinates": [
          -169.16601065457527,
          -69.03177442571295
        ]
      }
    },
    {
      "type": "Feature",
      "properties": {
        "norad_id": 29999,
        "name": "FENGYUN 1C DEB",
        "group": "fengyun-1c-debris",
        "lat": -40.30874390213792,
        "lon": -31.619674089127592,
        "alt_km": 961.528439429314,
        "timestamp": "2025-12-02T10:50:47.547085+00:00",
        "meta_object_name": "FENGYUN 1C DEB",
        "meta_object_id": "1999-025LZ",
        "meta_epoch": "2025-12-01T21:49:52.108896",
        "meta_mean_motion": 14.20111017,
        "meta_eccentricity": 0.0189123,
        "meta_inclination": 98.5755,
        "meta_ra_of_asc_node": 320.4999,
        "meta_arg_of_pericenter": 157.8109,
        "meta_mean_anomaly": 269.8512,
        "meta_ephemeris_type": 0,
        "meta_classification_type": "U",
        "meta_norad_cat_id": 29999,
        "meta_element_set_no": 999,
        "meta_rev_at_epoch": 97570,
        "meta_bstar": 0.00028683,
        "meta_mean_motion_dot": 6.88e-06,
        "meta_mean_motion_ddot": 0,
        "tle_line1": "1 29999U 99025LZ  25335.90963089  .00000688  00000+0  28683-3 0  9996",
        "tle_line2": "2 29999  98.5755 320.4999 0189123 157.8109 269.8512 14.20111017975709"
      },
      "geometry": {
        "type": "Point",
        "coordinates": [
          -31.619674089127592,
          -40.30874390213792
        ]
      }
    },
    {
      "type": "Feature",
      "properties": {
        "norad_id": 30001,
        "name": "FENGYUN 1C DEB",
        "group": "fengyun-1c-debris",
        "lat": -51.23957126620122,
        "lon": 62.38787114894103,
        "alt_km": 799.1425216922944,
        "timestamp": "2025-12-02T10:50:47.547096+00:00",
        "meta_object_name": "FENGYUN 1C DEB",
        "meta_object_id": "1999-025MA",
        "meta_epoch": "2025-12-02T04:40:20.860896",
        "meta_mean_motion": 14.38299194,
        "meta_eccentricity": 0.0039396,
        "meta_inclination": 98.9607,
        "meta_ra_of_asc_node": 50.786,
        "meta_arg_of_pericenter": 129.3081,
        "meta_mean_anomaly": 287.364,
        "meta_ephemeris_type": 0,
        "meta_classification_type": "U",
        "meta_norad_cat_id": 30001,
        "meta_element_set_no": 999,
        "meta_rev_at_epoch": 97280,
        "meta_bstar": 0.003174,
        "meta_mean_motion_dot": 9.712e-05,
        "meta_mean_motion_ddot": 0,
        "tle_line1": "1 30001U 99025MA  25336.19468589  .00009712  00000+0  31740-2 0  9993",
        "tle_line2": "2 30001  98.9607  50.7860 0039396 129.3081 287.3640 14.38299194972801"
      },
      "geometry": {
        "type": "Point",
        "coordinates": [
          62.38787114894103,
          -51.23957126620122
        ]
      }
    },
    {
      "type": "Feature",
      "properties": {
        "norad_id": 30003,
        "name": "FENGYUN 1C DEB",
        "group": "fengyun-1c-debris",
        "lat": -80.39837170541841,
        "lon": 37.28428118327882,
        "alt_km": 1008.2445312247983,
        "timestamp": "2025-12-02T10:50:47.547106+00:00",
        "meta_object_name": "FENGYUN 1C DEB",
        "meta_object_id": "1999-025MC",
        "meta_epoch": "2025-12-01T21:41:35.553408",
        "meta_mean_motion": 13.85612851,
        "meta_eccentricity": 0.0143082,
        "meta_inclination": 99.5757,
        "meta_ra_of_asc_node": 310.4703,
        "meta_arg_of_pericenter": 148.5018,
        "meta_mean_anomaly": 268.387,
        "meta_ephemeris_type": 0,
        "meta_classification_type": "U",
        "meta_norad_cat_id": 30003,
        "meta_element_set_no": 999,
        "meta_rev_at_epoch": 95338,
        "meta_bstar": 0.00037299,
        "meta_mean_motion_dot": 4.16e-06,
        "meta_mean_motion_ddot": 0,
        "tle_line1": "1 30003U 99025MC  25335.90388372  .00000416  00000+0  37299-3 0  9992",
        "tle_line2": "2 30003  99.5757 310.4703 0143082 148.5018 268.3870 13.85612851953385"
      },
      "geometry": {
        "type": "Point",
        "coordinates": [
          37.28428118327882,
          -80.39837170541841
        ]
      }
    }
  ]
}